NORAD_CAT_ID,OBJECT_NAME,OBJECT_TYPE,EPOCH,MEAN_MOTION,ECCENTRICITY,INCLINATION,RA_OF_ASC_NODE,ARG_OF_PERICENTER,MEAN_ANOMALY,BSTAR,MEAN_MOTION_DOT,MEAN_MOTION_DDOT,TLE_LINE0,TLE_LINE1,TLE_LINE2,SEMIMAJOR_AXIS,PERIOD,APOGEE,PERIGEE,DECAYED
50186.0,STARLINK-3274,PAYLOAD,2024-05-10 09:23:02,15.08843543,0.0001168,53.2171,19.2339,106.5598,253.5522,0.002532,0.00040243,0.0,0 STARLINK-3274,1 50186U 21125AG  24131.39099698  .00040243  00000-0  25320-2 0  9992,2 50186  53.2171  19.2339 0001168 106.5598 253.5522 15.08843543135091,6917.87,95.437,540.543,538.927,0.0
50186.0,STARLINK-3274,PAYLOAD,2024-05-10 20:30:44,15.08842454,0.0001063,53.2172,17.1526,123.276,236.8334,0.0028637,0.00045586,0.0,0 STARLINK-3274,1 50186U 21125AG  24131.85468497  .00045586  00000-0  28637-2 0  9999,2 50186  53.2172  17.1526 0001063 123.2760 236.8334 15.08842454135161,6917.873,95.437,540.473,539.003,0.0
50186.0,STARLINK-3274,PAYLOAD,2024-05-10 22:06:08,15.08849026,0.0001199,53.2171,16.855,112.8282,247.2836,0.0033422,0.00053319,0.0,0 STARLINK-3274,1 50186U 21125AG  24131.92092598  .00053319  00000-0  33422-2 0  9993,2 50186  53.2171  16.8550 0001199 112.8282 247.2836 15.08849026135644,6917.853,95.437,540.547,538.888,0.0
50186.0,STARLINK-3274,PAYLOAD,2024-05-11 01:16:54,15.08844879,0.0001478,53.2177,16.2607,116.621,243.4934,0.0027331,0.00043484,0.0,0 STARLINK-3274,1 50186U 21125AG  24132.05340680  .00043484  00000-0  27331-2 0  9990,2 50186  53.2177  16.2607 0001478 116.6210 243.4934 15.08844879135198,6917.865,95.437,540.753,538.708,0.0
50186.0,STARLINK-3274,PAYLOAD,2024-05-11 09:13:48,15.08942657,0.0001165,53.2165,14.7733,125.6594,234.4507,0.0060735,0.00097993,0.0,0 STARLINK-3274,1 50186U 21125AG  24132.38458822  .00097993  00000-0  60735-2 0  9993,2 50186  53.2165  14.7733 0001165 125.6594 234.4507 15.08942657135241,6917.567,95.431,540.238,538.626,0.0
50186.0,STARLINK-3274,PAYLOAD,2024-05-11 20:21:29,15.08883253,0.0001721,53.2162,12.6921,155.6819,204.4254,0.0058765,0.00094607,0.0,0 STARLINK-3274,1 50186U 21125AG  24132.84826303  .00094607  00000-0  58765-2 0  9996,2 50186  53.2162  12.6921 0001721 155.6819 204.4254 15.08883253135315,6917.748,95.435,540.804,538.423,0.0
50186.0,STARLINK-3274,PAYLOAD,2024-05-11 21:56:54,15.08710953,0.0002031,53.2161,12.3944,64.9544,295.1658,0.0032544,0.00051703,0.0,0 STARLINK-3274,1 50186U 21125AG  24132.91451442  .00051703  00000-0  32544-2 0  9999,2 50186  53.2161  12.3944 0002031  64.9544 295.1658 15.08710953135791,6918.275,95.446,541.545,538.735,0.0
50186.0,STARLINK-3274,PAYLOAD,2024-05-12 01:07:41,15.08712858,0.0001799,53.2161,11.7995,76.4698,283.6495,0.0030106,0.00047784,0.0,0 STARLINK-3274,1 50186U 21125AG  24133.04700523  .00047784  00000-0  30106-2 0  9997,2 50186  53.2161  11.7995 0001799  76.4698 283.6495 15.08712858135346,6918.269,95.446,541.379,538.889,0.0
50186.0,STARLINK-3274,PAYLOAD,2024-05-12 09:04:39,15.08722162,0.0001649,53.2157,10.3134,90.3959,269.7222,0.0017301,0.00027265,0.0,0 STARLINK-3274,1 50186U 21125AG  24133.37823194  .00027265  00000-0  17301-2 0  9997,2 50186  53.2157  10.3134 0001649  90.3959 269.7222 15.08722162135397,6918.241,95.445,541.246,538.965,0.0
50186.0,STARLINK-3274,PAYLOAD,2024-05-12 21:47:45,15.08814599,5.59e-05,53.2155,7.9341,83.1581,276.9475,0.0025389,0.00040322,0.0,0 STARLINK-3274,1 50186U 21125AG  24133.90816350  .00040322  00000-0  25389-2 0  9996,2 50186  53.2155   7.9341 0000559  83.1581 276.9475 15.08814599135472,6917.958,95.439,540.21,539.436,0.0
50186.0,STARLINK-3274,PAYLOAD,2024-05-12 23:23:08,15.08840788,0.0001267,53.2146,7.639,79.2734,280.84,0.0041115,0.00065759,0.0,0 STARLINK-3274,1 50186U 21125AG  24133.97440411  .00065759  00000-0  41115-2 0  9990,2 50186  53.2146   7.6390 0001267  79.2734 280.8400 15.08840788135488,6917.878,95.438,540.619,538.866,0.0
50186.0,STARLINK-3274,PAYLOAD,2024-05-13 08:55:26,15.08864882,0.0001286,53.2153,5.8524,89.3457,270.7682,0.0024181,0.00038432,0.0,0 STARLINK-3274,1 50186U 21125AG  24134.37183924  .00038432  00000-0  24181-2 0  9990,2 50186  53.2153   5.8524 0001286  89.3457 270.7682 15.08864882135548,6917.804,95.436,540.559,538.78,0.0
50186.0,STARLINK-3274,PAYLOAD,2024-05-13 21:38:30,15.08884148,0.0001254,53.2163,3.4733,88.1241,271.9894,0.001379,0.00021753,0.0,0 STARLINK-3274,1 50186U 21125AG  24134.90174674  .00021753  00000-0  13790-2 0  9993,2 50186  53.2163   3.4733 0001254  88.1241 271.9894 15.08884148136094,6917.745,95.435,540.478,538.743,0.0
50186.0,STARLINK-3274,PAYLOAD,2024-05-14 08:46:11,15.08888591,0.0001156,53.2162,1.3911,84.046,276.0664,0.00086127,0.00013464,0.0,0 STARLINK-3274,1 50186U 21125AG  24135.36541340  .00013464  00000-0  86127-3 0  9997,2 50186  53.2162   1.3911 0001156  84.0460 276.0664 15.08888591135699,6917.732,95.434,540.397,538.797,0.0
50186.0,STARLINK-3274,PAYLOAD,2024-05-14 21:29:16,15.08862251,0.0001657,53.2167,359.012,86.3806,273.7375,0.00018319,2.63e-05,0.0,0 STARLINK-3274,1 50186U 21125AG  24135.89533194  .00002630  00000-0  18319-3 0  9994,2 50186  53.2167 359.0120 0001657  86.3806 273.7375 15.08862251136244,6917.812,95.436,540.824,538.531,0.0
50186.0,STARLINK-3274,PAYLOAD,2024-05-15 00:40:02,15.08870136,0.0001763,53.2166,358.4171,90.0924,270.027,0.00080472,0.00012553,0.0,0 STARLINK-3274,1 50186U 21125AG  24136.02781053  .00012553  00000-0  80472-3 0  9993,2 50186  53.2166 358.4171 0001763  90.0924 270.0270 15.08870136135797,6917.788,95.436,540.873,538.434,0.0
50186.0,STARLINK-3274,PAYLOAD,2024-05-15 21:20:03,15.0884187,0.0001314,53.2167,354.5496,93.3106,266.8036,0.00054766,8.439e-05,0.0,0 STARLINK-3274,1 50186U 21125AG  24136.88893286  .00008439  00000-0  54766-3 0  9994,2 50186  53.2167 354.5496 0001314  93.3106 266.8036 15.08841870135926,6917.875,95.437,540.649,538.831,0.0
50186.0,STARLINK-3274,PAYLOAD,2024-05-16 21:10:50,15.08845238,0.0001413,53.2172,350.0891,95.6831,264.4322,0.00026015,3.855e-05,0.0,0 STARLINK-3274,1 50186U 21125AG  24137.88253208  .00003855  00000-0  26015-3 0  9992,2 50186  53.2172 350.0891 0001413  95.6831 264.4322 15.08845238136545,6917.864,95.437,540.707,538.752,0.0
50186.0,STARLINK-3274,PAYLOAD,2024-05-17 13:04:42,15.08840337,0.0001383,53.2168,347.1162,97.0158,263.0992,7.7496e-05,9.46e-06,0.0,0 STARLINK-3274,1 50186U 21125AG  24138.54493306  .00000946  00000-0  77496-4 0  9999,2 50186  53.2168 347.1162 0001383  97.0158 263.0992 15.08840337136174,6917.879,95.438,540.701,538.788,0.0
50186.0,STARLINK-3274,PAYLOAD,2024-05-17 21:01:38,15.08831303,6.67e-05,53.2168,345.6289,57.4739,302.6318,-3.0433e-05,-7.72e-06,0.0,0 STARLINK-3274,1 50186U 21125AG  24138.87613830 -.00000772  00000-0 -30433-4 0  9990,2 50186  53.2168 345.6289 0000667  57.4739 302.6318 15.08831303136227,6917.907,95.438,540.233,539.311,0.0
50186.0,STARLINK-3274,PAYLOAD,2024-05-18 06:33:56,15.0885332,9.44e-05,53.2167,343.8451,81.6276,278.4823,0.00033735,5.087e-05,0.0,0 STARLINK-3274,1 50186U 21125AG  24139.27356876  .00005087  00000-0  33735-3 0  9998,2 50186  53.2167 343.8451 0000944  81.6276 278.4823 15.08853320136280,6917.84,95.437,540.358,539.052,0.0
50186.0,STARLINK-3274,PAYLOAD,2024-05-18 22:27:47,15.08862224,1.93e-05,53.2158,340.8714,52.4931,307.6079,0.00042302,6.455e-05,0.0,0 STARLINK-3274,1 50186U 21125AG  24139.93596338  .00006455  00000-0  42302-3 0  9990,2 50186  53.2158 340.8714 0000193  52.4931 307.6079 15.08862224136853,6917.812,95.436,539.811,539.544,0.0
50186.0,STARLINK-3274,PAYLOAD,2024-05-19 12:46:17,15.08828483,0.0001821,53.2161,338.1955,108.9609,251.1581,4.2417e-05,3.87e-06,0.0,0 STARLINK-3274,1 50186U 21125AG  24140.53214244  .00000387  00000-0  42417-4 0  9997,2 50186  53.2161 338.1955 0001821 108.9609 251.1581 15.08828483136942,6917.916,95.438,541.04,538.521,0.0
50186.0,STARLINK-3274,PAYLOAD,2024-05-19 20:43:13,15.08814338,0.0001192,53.216,336.7098,91.8604,268.2524,-0.00015237,-2.71e-05,0.0,0 STARLINK-3274,1 50186U 21125AG  24140.86335175 -.00002710  00000-0 -15237-3 0  9993,2 50186  53.2160 336.7098 0001192  91.8604 268.2524 15.08814338136523,6917.959,95.439,540.648,538.999,0.0
50186.0,STARLINK-3274,PAYLOAD,2024-05-20 12:37:04,15.08829204,0.0001078,53.2161,333.7352,87.7934,272.3181,0.00010277,1.348e-05,0.0,0 STARLINK-3274,1 50186U 21125AG  24141.52574927  .00001348  00000-0  10277-3 0  9990,2 50186  53.2161 333.7352 0001078  87.7934 272.3181 15.08829204136621,6917.913,95.438,540.524,539.033,0.0
50186.0,STARLINK-3274,PAYLOAD,2024-05-20 18:58:37,15.08843182,0.0001095,53.2158,332.5476,88.8352,271.2766,0.00053314,8.208e-05,0.0,0 STARLINK-3274,1 50186U 21125AG  24141.79070750  .00008208  00000-0  53314-3 0  9995,2 50186  53.2158 332.5476 0001095  88.8352 271.2766 15.08843182136668,6917.871,95.437,540.493,538.978,0.0
50186.0,STARLINK-3274,PAYLOAD,2024-05-21 18:49:22,15.08889572,0.0001027,53.2152,328.0862,91.1035,269.0075,0.0013449,0.0002121,0.0,0 STARLINK-3274,1 50186U 21125AG  24142.78429122  .00021210  00000-0  13449-2 0  9998,2 50186  53.2152 328.0862 0001027  91.1035 269.0075 15.08889572136819,6917.729,95.434,540.304,538.883,0.0
50186.0,STARLINK-3274,PAYLOAD,2024-05-21 22:00:08,15.08903586,9.7e-05,53.2151,327.4913,91.3698,268.7405,0.0017594,0.00027873,0.0,0 STARLINK-3274,1 50186U 21125AG  24142.91676494  .00027873  00000-0  17594-2 0  9995,2 50186  53.2151 327.4913 0000970  91.3698 268.7405 15.08903586137301,6917.686,95.434,540.222,538.88,0.0
50186.0,STARLINK-3274,PAYLOAD,2024-05-23 02:37:03,15.08870308,0.0001344,53.2157,322.141,77.6496,282.4646,0.00088496,0.00013836,0.0,0 STARLINK-3274,1 50186U 21125AG  24144.10907312  .00013836  00000-0  88496-3 0  9998,2 50186  53.2157 322.1410 0001344  77.6496 282.4646 15.08870308137013,6917.788,95.436,540.583,538.723,0.0
50186.0,STARLINK-3274,PAYLOAD,2024-05-23 12:09:23,15.0881197,0.00015,53.2167,320.3531,87.194,272.9224,-0.00029949,-5.047e-05,0.0,0 STARLINK-3274,1 50186U 21125AG  24144.50652207 -.00005047  00000-0 -29949-3 0  9997,2 50186  53.2167 320.3531 0001500  87.1940 272.9224 15.08811970137074,6917.966,95.439,540.869,538.793,0.0
